OBJECT_NAME,OBJECT_ID,EPOCH,MEAN_MOTION,ECCENTRICITY,INCLINATION,RA_OF_ASC_NODE,ARG_OF_PERICENTER,MEAN_ANOMALY,EPHEMERIS_TYPE,CLASSIFICATION_TYPE,NORAD_CAT_ID,ELEMENT_SET_NO,REV_AT_EPOCH,BSTAR,MEAN_MOTION_DOT,MEAN_MOTION_DDOT
IRIDIUM 154,2018-061F,2026-07-08T08:54:54.315936,14.34216445,.00023138,86.3946,47.9467,90.2475,269.8986,0,U,43574,999,41644,.62305951E-4,.194E-5,0
IRIDIUM 163,2018-061G,2026-07-08T08:27:30.333024,14.34216683,.00021898,86.3940,47.8693,85.0628,275.0818,0,U,43575,999,41641,.51706129E-4,.165E-5,0
IRIDIUM 156,2018-061H,2026-07-08T14:32:50.409600,14.34217328,.00020584,86.3941,47.7703,90.1090,270.0341,0,U,43576,999,41644,.81635893E-4,.248E-5,0
IRIDIUM 164,2018-061J,2026-07-08T07:23:34.524672,14.34216354,.00023187,86.3949,47.9358,88.8390,271.3072,0,U,43577,999,41644,.38677504E-4,.128E-5,0
IRIDIUM 159,2018-061K,2026-07-08T08:18:22.341024,14.34216931,.00022256,86.3939,47.8561,85.9108,274.2342,0,U,43578,999,41641,.51623171E-4,.164E-5,0
IRIDIUM 180,2019-002A,2026-07-08T09:58:06.997728,14.34217065,.0002246,86.3987,344.7224,91.3954,268.7499,0,U,43922,999,39203,.47549322E-4,.153E-5,0
IRIDIUM 176,2019-002B,2026-07-08T10:23:28.130208,14.72243071,.00023508,86.6104,344.6556,88.8914,271.2572,0,U,43923,999,40237,.90555111E-4,.595E-5,0
IRIDIUM 168,2019-002C,2026-07-08T09:48:58.635936,14.34217780,.00022308,86.3987,344.8029,90.5447,269.6005,0,U,43924,999,39201,.13368458E-4,.57E-6,0
IRIDIUM 173,2019-002D,2026-07-08T09:30:42.813504,14.34218022,.00021587,86.3984,344.6962,90.5936,269.5508,0,U,43925,999,39199,.30257389E-4,.105E-5,0
IRIDIUM 169,2019-002E,2026-07-08T11:12:05.662944,14.38613493,.00017183,86.4219,16.2942,96.3396,263.7998,0,U,43926,999,39328,.60891886E-4,.206E-5,0
IRIDIUM 172,2019-002F,2026-07-08T09:21:34.951968,14.34216841,.00021908,86.3984,344.7065,90.1960,269.9487,0,U,43927,999,39200,.62689615E-4,.195E-5,0
IRIDIUM 175,2019-002G,2026-07-08T06:40:34.206816,14.43624724,.00048695,86.4515,281.7053,129.2733,230.8901,0,U,43928,999,40202,.6490357E-4,.24E-5,0
IRIDIUM 171,2019-002H,2026-07-08T08:54:10.898208,14.34217122,.00021816,86.3991,345.0233,94.7627,265.3818,0,U,43929,999,39199,.42215568E-4,.138E-5,0
IRIDIUM 170,2019-002J,2026-07-08T10:32:21.450624,14.72243595,.00023476,86.6103,344.6552,85.2750,274.8735,0,U,43930,999,40238,.9065819E-4,.596E-5,0
IRIDIUM 167,2019-002K,2026-07-08T10:25:30.914112,14.34217367,.00022046,86.3985,344.7108,99.6403,260.5042,0,U,43931,999,39200,.10124202E-3,.303E-5,0
IRIDIUM 181,2023-068S,2026-07-08T14:21:56.155968,14.43309943,.00024601,86.4479,47.8375,84.9989,275.1492,0,U,56726,999,16552,.57269105E-4,.213E-5,0
IRIDIUM 177,2023-068T,2026-07-07T21:00:04.576608,14.80021092,.0002129,86.1980,318.9680,91.9167,268.2297,0,U,56727,999,16942,.10734162E-3,.838E-5,0
IRIDIUM 174,2023-068U,2026-07-08T08:36:37.333152,14.72251875,.00020977,86.6111,344.8382,82.7672,277.3783,0,U,56728,999,16913,.94665448E-4,.622E-5,0
IRIDIUM 178,2023-068V,2026-07-08T06:28:21.101088,14.80024108,.00022852,86.6533,16.5481,87.2958,272.8525,0,U,56729,999,16948,.71196129E-4,.564E-5,0
IRIDIUM 179,2023-068W,2026-07-08T14:27:29.151936,14.80030292,.00022661,86.6765,25.4521,90.8497,269.2984,0,U,56730,999,16953,.9648037E-4,.756E-5,0
