IRIDIUM 154             
1 43574U 18061F   26189.37146199  .00000194  00000+0  62306-4 0  9999
2 43574  86.3946  47.9467 0002313  90.2475 269.8986 14.34216445416445
IRIDIUM 163             
1 43575U 18061G   26189.35243441  .00000165  00000+0  51706-4 0  9996
2 43575  86.3940  47.8693 0002189  85.0628 275.0818 14.34216683416417
IRIDIUM 156             
1 43576U 18061H   26189.60613900  .00000248  00000+0  81636-4 0  9993
2 43576  86.3941  47.7703 0002058  90.1090 270.0341 14.34217328416441
IRIDIUM 164             
1 43577U 18061J   26189.30803848  .00000128  00000+0  38678-4 0  9998
2 43577  86.3949  47.9358 0002318  88.8390 271.3072 14.34216354416447
IRIDIUM 159             
1 43578U 18061K   26189.34609191  .00000164  00000+0  51623-4 0  9993
2 43578  86.3939  47.8561 0002225  85.9108 274.2342 14.34216931416414
IRIDIUM 180             
1 43922U 19002A   26189.41535877  .00000153  00000+0  47549-4 0  9999
2 43922  86.3987 344.7224 0002246  91.3954 268.7499 14.34217065392039
IRIDIUM 176             
1 43923U 19002B   26189.43296447  .00000595  00000+0  90555-4 0  9994
2 43923  86.6104 344.6556 0002350  88.8914 271.2572 14.72243071402372
IRIDIUM 168             
1 43924U 19002C   26189.40901199  .00000057  00000+0  13368-4 0  9999
2 43924  86.3987 344.8029 0002230  90.5447 269.6005 14.34217780392011
IRIDIUM 173             
1 43925U 19002D   26189.39632886  .00000105  00000+0  30257-4 0  9992
2 43925  86.3984 344.6962 0002158  90.5936 269.5508 14.34218022391998
IRIDIUM 169             
1 43926U 19002E   26189.46673221  .00000206  00000+0  60892-4 0  9999
2 43926  86.4219  16.2942 0001718  96.3396 263.7998 14.38613493393284
IRIDIUM 172             
1 43927U 19002F   26189.38998787  .00000195  00000+0  62690-4 0  9993
2 43927  86.3984 344.7065 0002190  90.1960 269.9487 14.34216841392004
IRIDIUM 175             
1 43928U 19002G   26189.27817369  .00000240  00000+0  64904-4 0  9999
2 43928  86.4515 281.7053 0004869 129.2733 230.8901 14.43624724402025
IRIDIUM 171             
1 43929U 19002H   26189.37095947  .00000138  00000+0  42216-4 0  9999
2 43929  86.3991 345.0233 0002181  94.7627 265.3818 14.34217122391993
IRIDIUM 170             
1 43930U 19002J   26189.43913716  .00000596  00000+0  90658-4 0  9992
2 43930  86.6103 344.6552 0002347  85.2750 274.8735 14.72243595402382
IRIDIUM 167             
1 43931U 19002K   26189.43438558  .00000303  00000+0  10124-3 0  9994
2 43931  86.3985 344.7108 0002204  99.6403 260.5042 14.34217367392008
IRIDIUM 181             
1 56726U 23068S   26189.59856662  .00000213  00000+0  57269-4 0  9996
2 56726  86.4479  47.8375 0002460  84.9989 275.1492 14.43309943165528
IRIDIUM 177             
1 56727U 23068T   26188.87505297  .00000838  00000+0  10734-3 0  9990
2 56727  86.1980 318.9680 0002129  91.9167 268.2297 14.80021092169428
IRIDIUM 174             
1 56728U 23068U   26189.35876543  .00000622  00000+0  94665-4 0  9997
2 56728  86.6111 344.8382 0002097  82.7672 277.3783 14.72251875169134
IRIDIUM 178             
1 56729U 23068V   26189.26968867  .00000564  00000+0  71196-4 0  9998
2 56729  86.6533  16.5481 0002285  87.2958 272.8525 14.80024108169480
IRIDIUM 179             
1 56730U 23068W   26189.60242074  .00000756  00000+0  96480-4 0  9999
2 56730  86.6765  25.4521 0002266  90.8497 269.2984 14.80030292169536
